ORBCOMM FM05 [-]        
1 25117U 97084F   23304.78644201  .00002530  00000+0  81310-3 0  9993
2 25117  45.0166 331.5370 0001242 181.6227 178.4619 14.41636127355653
ORBCOMM FM06 [+]        
1 25118U 97084G   23304.40023365  .00002428  00000+0  78309-3 0  9995
2 25118  45.0160 333.5421 0001527 217.7371 156.5394 14.41583271355573
ORBCOMM FM07 [-]        
1 25119U 97084H   23304.79562989  .00002470  00000+0  79675-3 0  9992
2 25119  45.0155 332.1028 0001108 137.3316 222.7620 14.41528720355641
ORBCOMM FM03 [-]        
1 25158U 98007B   23304.80589667  .00001696  00000+0  67880-3 0  9999
2 25158 107.9793 357.4670 0049243 208.0520 151.7962 14.31408540339040
ORBCOMM FM04 [+]        
1 25159U 98007C   23304.82915529  .00001554  00000+0  62425-3 0  9995
2 25159 107.9772   0.3230 0044675 206.2634 153.6238 14.31679397339186
ORBCOMM FM17 [-]        
1 25413U 98046A   23304.39421726  .00001292  00000+0  52409-3 0  9994
2 25413  44.9942 178.4747 0002015  91.5966 268.5111 14.32467823317815
ORBCOMM FM18 [-]        
1 25414U 98046B   23304.74297094  .00001945  00000+0  72578-3 0  9997
2 25414  44.9924 107.8265 0004972 171.5284 188.5648 14.34999132318938
ORBCOMM FM19 [+]        
1 25415U 98046C   23304.85460937  .00001893  00000+0  70941-3 0  9992
2 25415  44.9933 108.4691 0003774 163.6370 336.2508 14.34862322318944
